#aP2010  7 19  0  0  0.00000000    8589 00000 00000 NAV  CSR
## 1593  86400.00000000    10.00000000 55396 0.0000000000000
+   01   L11  0  0  0  0  0  0  0  0  0  0  0  0  0  0  0  0
+          0  0  0  0  0  0  0  0  0  0  0  0  0  0  0  0  0
+          0  0  0  0  0  0  0  0  0  0  0  0  0  0  0  0  0
+          0  0  0  0  0  0  0  0  0  0  0  0  0  0  0  0  0
+          0  0  0  0  0  0  0  0  0  0  0  0  0  0  0  0  0
++         0  0  0  0  0  0  0  0  0  0  0  0  0  0  0  0  0
++         0  0  0  0  0  0  0  0  0  0  0  0  0  0  0  0  0
++         0  0  0  0  0  0  0  0  0  0  0  0  0  0  0  0  0
++         0  0  0  0  0  0  0  0  0  0  0  0  0  0  0  0  0
++         0  0  0  0  0  0  0  0  0  0  0  0  0  0  0  0  0
%c cc cc ccc ccc cccc cccc cccc cccc ccccc ccccc ccccc ccccc
%c cc cc ccc ccc cccc cccc cccc cccc ccccc ccccc ccccc ccccc
%f  0.0000000  0.000000000  0.00000000000  0.000000000000000
%f  0.0000000  0.000000000  0.00000000000  0.000000000000000
%i    0    0    0    0      0      0      0      0         0
%i    0    0    0    0      0      0      0      0         0
/* CCCCCCCCCCCCCCCCCCCCCCCCCCCCCCCCCCCCCCCCCCCCCCCCCCCCCCCCC
/* CCCCCCCCCCCCCCCCCCCCCCCCCCCCCCCCCCCCCCCCCCCCCCCCCCCCCCCCC
/* CCCCCCCCCCCCCCCCCCCCCCCCCCCCCCCCCCCCCCCCCCCCCCCCCCCCCCCCC
/* CCCCCCCCCCCCCCCCCCCCCCCCCCCCCCCCCCCCCCCCCCCCCCCCCCCCCCCCC
*  2010  7 19 12 28 30.00000000
PL11  -6307.711467  -1105.642722  -1526.559247     -0.054880
*  2010  7 19 12 28 40.00000000
PL11  -6291.225359  -1092.280643  -1603.031356     -0.060730
*  2010  7 19 12 28 50.00000000
PL11  -6273.843932  -1078.791135  -1679.278658     -0.064640
*  2010  7 19 12 29  0.00000000
PL11  -6255.567407  -1065.176562  -1755.290222     -0.068890
*  2010  7 19 12 29 10.00000000
PL11  -6236.400808  -1051.441932  -1831.055850     -0.076390
*  2010  7 19 12 29 20.00000000
PL11  -6216.346657  -1037.589353  -1906.565152     -0.071820
*  2010  7 19 12 29 30.00000000
PL11  -6195.405564  -1023.622177  -1981.806985     -0.082520
*  2010  7 19 12 29 40.00000000
PL11  -6173.581327  -1009.543110  -2056.770588     -0.082810
*  2010  7 19 12 29 50.00000000
PL11  -6150.877573   -995.356274  -2131.446310     -0.085010
*  2010  7 19 12 30  0.00000000
PL11  -6127.298221   -981.064465  -2205.822941     -0.084570
*  2010  7 19 12 30 10.00000000
PL11  -6102.841610   -966.671735  -2279.890734     -0.095410
*  2010  7 19 12 30 20.00000000
PL11  -6077.520692   -952.180118  -2353.640015     -0.083530
*  2010  7 19 12 30 30.00000000
PL11  -6051.330325   -937.593860  -2427.058988     -0.079090
*  2010  7 19 12 30 40.00000000
PL11  -6024.280159   -922.917308  -2500.138696     -0.076910
*  2010  7 19 12 30 50.00000000
PL11  -5996.369180   -908.150000  -2572.868465     -0.093200
*  2010  7 19 12 31  0.00000000
PL11  -5967.602281   -893.300037  -2645.237847     -0.090830
*  2010  7 19 12 31 10.00000000
PL11  -5937.986738   -878.367943  -2717.238907     -0.085770
*  2010  7 19 12 31 20.00000000
PL11  -5907.525881   -863.357537  -2788.858754     -0.082000
*  2010  7 19 12 31 30.00000000
PL11  -5876.219546   -848.272834  -2860.088959     -0.091630
*  2010  7 19 12 31 40.00000000
PL11  -5844.076430   -833.116260  -2930.919588     -0.098580
*  2010  7 19 12 31 50.00000000
PL11  -5811.102185   -817.891869  -3001.342045     -0.096240
*  2010  7 19 12 32  0.00000000
PL11  -5777.299884   -802.602400  -3071.344202     -0.099830
*  2010  7 19 12 32 10.00000000
PL11  -5742.675898   -787.251882  -3140.917886     -0.095040
*  2010  7 19 12 32 20.00000000
PL11  -5707.232296   -771.842211  -3210.053676     -0.094240
*  2010  7 19 12 32 30.00000000
PL11  -5670.976780   -756.380381  -3278.741234     -0.086310
*  2010  7 19 12 32 40.00000000
PL11  -5633.913886   -740.865259  -3346.972910     -0.077680
*  2010  7 19 12 32 50.00000000
PL11  -5596.046271   -725.303026  -3414.736328     -0.081550
*  2010  7 19 12 33  0.00000000
PL11  -5557.383351   -709.696030  -3482.026787     -0.080460
*  2010  7 19 12 33 10.00000000
PL11  -5517.928676   -694.047967  -3548.830229     -0.078650
*  2010  7 19 12 33 20.00000000
PL11  -5477.689936   -678.362820  -3615.139294     -0.074570
*  2010  7 19 12 33 30.00000000
PL11  -5436.672390   -662.642511  -3680.948299     -0.064350
*  2010  7 19 12 33 40.00000000
PL11  -5394.879445   -646.891043  -3746.243496     -0.059960
*  2010  7 19 12 33 50.00000000
PL11  -5352.319493   -631.111337  -3811.018430     -0.057630
*  2010  7 19 12 34  0.00000000
PL11  -5308.998454   -615.307518  -3875.263895     -0.059560
*  2010  7 19 12 34 10.00000000
PL11  -5264.922535   -599.482725  -3938.972261     -0.066870
*  2010  7 19 12 34 20.00000000
PL11  -5220.096853   -583.640961  -4002.134775     -0.072730
*  2010  7 19 12 34 30.00000000
PL11  -5174.532196   -567.782968  -4064.741505     -0.074000
*  2010  7 19 12 34 40.00000000
PL11  -5128.228875   -551.914935  -4126.784454     -0.076890
*  2010  7 19 12 34 50.00000000
PL11  -5081.198713   -536.039140  -4188.256695     -0.073210
*  2010  7 19 12 35  0.00000000
PL11  -5033.446434   -520.158161  -4249.146304     -0.084990
*  2010  7 19 12 35 10.00000000
PL11  -4984.979717   -504.276816  -4309.451885     -0.088320
*  2010  7 19 12 35 20.00000000
PL11  -4935.805608   -488.396130  -4369.159614     -0.085440
*  2010  7 19 12 35 30.00000000
PL11  -4885.930773   -472.521171  -4428.263566     -0.091220
*  2010  7 19 12 35 40.00000000
PL11  -4835.362656   -456.654236  -4486.757232     -0.089800
*  2010  7 19 12 35 50.00000000
PL11  -4784.107619   -440.799804  -4544.629428     -0.096070
*  2010  7 19 12 36  0.00000000
PL11  -4732.173870   -424.960013  -4601.876125     -0.097720
*  2010  7 19 12 36 10.00000000
PL11  -4679.567606   -409.138698  -4658.488107     -0.109000
*  2010  7 19 12 36 20.00000000
PL11  -4626.303627   -393.336683  -4714.458552     -0.094740
*  2010  7 19 12 36 30.00000000
PL11  -4572.380167   -377.559175  -4769.777087     -0.094230
*  2010  7 19 12 36 40.00000000
PL11  -4517.809359   -361.810308  -4824.441003     -0.091330
*  2010  7 19 12 36 50.00000000
PL11  -4462.598585   -346.092231  -4878.442387     -0.086330
*  2010  7 19 12 37  0.00000000
PL11  -4406.757022   -330.407452  -4931.773058     -0.088570
*  2010  7 19 12 37 10.00000000
PL11  -4350.291372   -314.759888  -4984.427402     -0.088050
*  2010  7 19 12 37 20.00000000
PL11  -4293.209621   -299.152140  -5036.397545     -0.089810
*  2010  7 19 12 37 30.00000000
PL11  -4235.520456   -283.587040  -5087.676936     -0.086250
*  2010  7 19 12 37 40.00000000
PL11  -4177.232074   -268.068401  -5138.258924     -0.084440
*  2010  7 19 12 37 50.00000000
PL11  -4118.353453   -252.598211  -5188.137403     -0.082600
*  2010  7 19 12 38  0.00000000
PL11  -4058.892507   -237.180536  -5237.305287     -0.084390
*  2010  7 19 12 38 10.00000000
PL11  -3998.858554   -221.817646  -5285.758895     -0.087640
*  2010  7 19 12 38 20.00000000
PL11  -3938.260151   -206.512703  -5333.489841     -0.087250
*  2010  7 19 12 38 30.00000000
PL11  -3877.104008   -191.268557  -5380.490861     -0.089090
*  2010  7 19 12 38 40.00000000
PL11  -3815.401575   -176.087865  -5426.760058     -0.083970
*  2010  7 19 12 38 50.00000000
PL11  -3753.160398   -160.973630  -5472.288396     -0.082740
*  2010  7 19 12 39  0.00000000
PL11  -3690.389524   -145.929014  -5517.071139     -0.085820
*  2010  7 19 12 39 10.00000000
PL11  -3627.095865   -130.956941  -5561.102038     -0.081520
*  2010  7 19 12 39 20.00000000
PL11  -3563.293406   -116.059272  -5604.379410     -0.077270
*  2010  7 19 12 39 30.00000000
PL11  -3498.986272   -101.239291  -5646.892476     -0.075780
*  2010  7 19 12 39 40.00000000
PL11  -3434.187063    -86.499941  -5688.639199     -0.077840
*  2010  7 19 12 39 50.00000000
PL11  -3368.901423    -71.844672  -5729.614034     -0.076020
*  2010  7 19 12 40  0.00000000
PL11  -3303.143679    -57.274208  -5769.813631     -0.075080
*  2010  7 19 12 40 10.00000000
PL11  -3236.919666    -42.792730  -5809.230494     -0.074610
*  2010  7 19 12 40 20.00000000
PL11  -3170.241769    -28.401833  -5847.862884     -0.069640
*  2010  7 19 12 40 30.00000000
PL11  -3103.111437    -14.105872  -5885.701547     -0.081480
*  2010  7 19 12 40 40.00000000
PL11  -3035.547517      0.094897  -5922.745426     -0.083820
*  2010  7 19 12 40 50.00000000
PL11  -2967.556513     14.196313  -5958.991604     -0.071210
*  2010  7 19 12 41  0.00000000
PL11  -2899.146541     28.196277  -5994.430870     -0.077560
*  2010  7 19 12 41 10.00000000
PL11  -2830.328802     42.092476  -6029.065581     -0.079100
*  2010  7 19 12 41 20.00000000
PL11  -2761.111471     55.882679  -6062.885260     -0.084350
*  2010  7 19 12 41 30.00000000
PL11  -2691.505596     69.563697  -6095.892562     -0.083430
*  2010  7 19 12 41 40.00000000
PL11  -2621.519844     83.134302  -6128.077153     -0.084170
*  2010  7 19 12 41 50.00000000
PL11  -2551.164944     96.591102  -6159.437698     -0.073970
*  2010  7 19 12 42  0.00000000
PL11  -2480.452048    109.932092  -6189.973515     -0.071460
*  2010  7 19 12 42 10.00000000
PL11  -2409.388142    123.155008  -6219.682413     -0.061440
*  2010  7 19 12 42 20.00000000
PL11  -2337.984096    136.257766  -6248.551690     -0.078100
*  2010  7 19 12 42 30.00000000
PL11  -2266.250747    149.237895  -6276.588855     -0.068970
*  2010  7 19 12 42 40.00000000
PL11  -2194.198001    162.093627  -6303.787335     -0.064650
*  2010  7 19 12 42 50.00000000
PL11  -2121.835015    174.822488  -6330.139461     -0.073870
*  2010  7 19 12 43  0.00000000
PL11  -2049.171325    187.422165  -6355.648498     -0.079450
*  2010  7 19 12 43 10.00000000
PL11  -1976.219005    199.891398  -6380.307980     -0.086720
*  2010  7 19 12 43 20.00000000
PL11  -1902.987518    212.227027  -6404.121888     -0.089310
*  2010  7 19 12 43 30.00000000
PL11  -1829.485430    224.427629  -6427.080304     -0.086480
*  2010  7 19 12 43 40.00000000
PL11  -1755.724738    236.491542  -6449.180025     -0.089970
*  2010  7 19 12 43 50.00000000
PL11  -1681.713674    248.416673  -6470.426571     -0.095430
EOF
